     2.10           N: GPS NAV DATA                         RINEX VERSION / TYPE
JPS2RIN v.2.1.237   JAVAD GNSS          20251027 230342 UTC PGM / RUN BY / DATE
    16                                                      LEAP SECONDS
                                                            END OF HEADER
25 13 10 24  4  0  0.0 1.603360287845D-04 3.524291969370D-12 0.000000000000D+00
    3.500000000000D+01-8.625000000000D+01 4.228033257413D-09-1.340481125562D-01
   -4.509463906288D-06 2.752956934273D-03 6.364658474922D-06 5.153710128784D+03
    3.600000000000D+05 2.048909664154D-08 8.491766781314D-02 7.823109626770D-08
    9.747075353384D-01 2.620000000000D+02 7.048681775032D-01-8.066764584553D-09
   -2.342954736326D-10 1.000000000000D+00 1.763000000000D+03 0.000000000000D+00
    2.000000000000D+00 0.000000000000D+00 5.587935000000D-09 3.500000000000D+01
    3.575400000000D+05 4.000000000000D+00
26 13 10 24  4  0  0.0 2.540815621614D-04 1.921307557495D-11 0.000000000000D+00
    2.400000000000D+01 1.006562500000D+02 3.956950537158D-09 2.705522512741D+00
    4.895031452179D-06 2.109476842452D-02 8.100643754005D-06 5.153689748764D+03
    3.600000000000D+05 1.508742570877D-07-1.909586745610D+00-2.440065145493D-07
    9.772083367411D-01 2.272187500000D+02 1.254130254462D+00-7.463525171496D-09
    2.821546100149D-11 1.000000000000D+00 1.763000000000D+03 0.000000000000D+00
    2.000000000000D+00 0.000000000000D+00-5.587935000000D-09 2.400000000000D+01
    3.528300000000D+05 4.000000000000D+00
28 13 10 24  4  0  0.0 3.030640073121D-04 3.069544618484D-12 0.000000000000D+00
    5.100000000000D+01-7.484375000000D+01 3.922663394676D-09-1.521086285612D+00
   -3.732740879059D-06 1.892236107960D-02 7.420778274536D-06 5.153653076172D+03
    3.600000000000D+05 2.123415470123D-07 1.493579657245D-01 4.377216100693D-07
    9.850501028335D-01 2.465937500000D+02-1.759172630567D+00-7.751394305258D-09
   -2.407243128482D-10 1.000000000000D+00 1.763000000000D+03 0.000000000000D+00
    2.000000000000D+00 0.000000000000D+00-1.071021000000D-08 5.100000000000D+01
    3.528000000000D+05 4.000000000000D+00
32 13 10 24  4  0  0.0-5.373866297305D-04 3.865352482535D-12 0.000000000000D+00
    7.900000000000D+01 9.250000000000D+00 4.809843206419D-09 1.642814970455D+00
    4.153698682785D-07 1.160616637208D-02 8.720904588699D-06 5.153568571091D+03
    3.600000000000D+05 4.842877388000D-08-2.965997353055D+00 1.527369022369D-07
    9.490048136997D-01 2.057500000000D+02-2.627157279874D-01-8.044263647298D-09
   -4.264463346301D-10 1.000000000000D+00 1.763000000000D+03 0.000000000000D+00
    2.000000000000D+00 0.000000000000D+00-2.793968000000D-09 7.900000000000D+01
    3.592500000000D+05 4.000000000000D+00
 2 13 10 24  5 59 44.0 4.573608748615D-04 2.046363078989D-12 0.000000000000D+00
    4.000000000000D+00 2.968750000000D+00 5.104141179396D-09-2.733946823768D+00
    1.452863216400D-07 1.267003023531D-02 6.247311830521D-06 5.153742065430D+03
    3.671840000000D+05-1.303851604462D-08 2.162335302585D+00-1.844018697739D-07
    9.387608307910D-01 2.461250000000D+02-2.548023840929D+00-8.146053601544D-09
    2.253665302777D-10 1.000000000000D+00 1.763000000000D+03 0.000000000000D+00
    2.000000000000D+00 0.000000000000D+00-1.722947000000D-08 4.000000000000D+00
    3.606600000000D+05 4.000000000000D+00
17 13 10 24  5 59 44.0-3.402307629585D-05-3.637978807092D-12 0.000000000000D+00
    1.800000000000D+01-2.087500000000D+01 4.334466262204D-09-1.269583156149D+00
   -1.110136508942D-06 8.620296139270D-03 9.121373295784D-06 5.153695787430D+03
    3.671840000000D+05 2.440065145493D-07 1.177800950057D+00 1.266598701477D-07
    9.664311494508D-01 2.084062500000D+02-2.187578297828D+00-7.867113411137D-09
    1.842933908452D-10 1.000000000000D+00 1.763000000000D+03 0.000000000000D+00
    2.000000000000D+00 0.000000000000D+00-1.024455000000D-08 1.800000000000D+01
    3.601200000000D+05 4.000000000000D+00
24 13 10 24  5 59 44.0-1.607602462173D-05-6.821210263297D-13 0.000000000000D+00
    1.600000000000D+01 3.128125000000D+01 4.806271629077D-09-3.059363028990D+00
    1.685693860054D-06 1.194219104946D-03 3.013759851456D-06 5.153650119781D+03
    3.671840000000D+05 1.862645149231D-09-9.663018874723D-01-4.470348358154D-08
    9.580772991251D-01 3.204062500000D+02 9.518387244749D-02-8.367134239012D-09
    7.893185925733D-11 1.000000000000D+00 1.763000000000D+03 0.000000000000D+00
    2.000000000000D+00 0.000000000000D+00 3.259629000000D-09 1.600000000000D+01
    3.600000000000D+05 4.000000000000D+00
 2 13 10 24  6  0  0.0 4.573506303132D-04 1.818989403546D-12 0.000000000000D+00
    8.900000000000D+01 2.968750000000D+00 5.104498337130D-09-2.731612887190D+00
    1.452863216400D-07 1.267003209796D-02 6.247311830521D-06 5.153742065430D+03
    3.672000000000D+05-1.303851604462D-08 2.162335182625D+00-1.844018697739D-07
    9.387608337168D-01 2.461250000000D+02-2.548024115958D+00-8.146053601544D-09
    2.253665302777D-10 1.000000000000D+00 1.763000000000D+03 0.000000000000D+00
    2.000000000000D+00 0.000000000000D+00-1.722947000000D-08 8.900000000000D+01
    3.600000000000D+05 4.000000000000D+00
 4 13 10 24  6  0  0.0 2.430286258459D-06 4.547473508865D-13 0.000000000000D+00
    1.070000000000D+02 6.687500000000D+00 5.254147427759D-09 5.559116204075D-01
    5.476176738739D-07 1.065566914622D-02 6.422400474548D-06 5.153619546890D+03
    3.672000000000D+05-2.011656761169D-07 2.178610359843D+00 5.774199962616D-08
    9.378022464050D-01 2.461250000000D+02 1.041888326465D+00-8.506068597614D-09
    4.714482091388D-11 1.000000000000D+00 1.763000000000D+03 0.000000000000D+00
    2.000000000000D+00 0.000000000000D+00-6.053597000000D-09 1.070000000000D+02
    3.600300000000D+05 4.000000000000D+00
10 13 10 24  6  0  0.0-9.906571358442D-05-1.250555214938D-12 0.000000000000D+00
    1.720000000000D+02 4.250000000000D+00 5.020566269594D-09-2.102366974080D-01
    3.222376108170D-07 1.299714017659D-02 8.258968591690D-06 5.153668764114D+03
    3.672000000000D+05 1.117587089539D-08-3.036331096909D+00 1.490116119385D-07
    9.432954291838D-01 2.127187500000D+02 8.257378748855D-01-8.433922735306D-09
   -2.725113511916D-10 1.000000000000D+00 1.763000000000D+03 0.000000000000D+00
    2.000000000000D+00 0.000000000000D+00-2.328306000000D-09 1.720000000000D+02
    3.638100000000D+05 4.000000000000D+00
12 13 10 24  6  0  0.0 1.639053225517D-04 2.273736754432D-12 0.000000000000D+00
    7.800000000000D+01-8.465625000000D+01 3.925877814283D-09 1.854174489673D+00
   -4.410743713379D-06 4.535084939562D-03 6.992369890213D-06 5.153744379044D+03
    3.672000000000D+05-9.313225746155D-08 1.248001252376D-01 1.322478055954D-07
    9.859188728270D-01 2.568125000000D+02 3.321474058327D-01-7.854255732706D-09
   -2.171519023912D-10 1.000000000000D+00 1.763000000000D+03 0.000000000000D+00
    2.000000000000D+00 0.000000000000D+00-1.164153000000D-08 7.800000000000D+01
    3.600000000000D+05 4.000000000000D+00
14 13 10 24  6  0  0.0 2.125604078174D-04-1.023181539495D-12 0.000000000000D+00
    7.000000000000D+01 9.143750000000D+01 4.214818421248D-09-1.513473119488D+00
    4.855915904045D-06 7.416081731208D-03 8.458271622658D-06 5.153576778412D+03
    3.672000000000D+05 1.247972249985D-07-1.932028478021D+00 1.005828380585D-07
    9.724199396165D-01 2.213437500000D+02-1.995474589972D+00-7.854255732706D-09
    8.357490980188D-11 1.000000000000D+00 1.763000000000D+03 0.000000000000D+00
    2.000000000000D+00 0.000000000000D+00-8.847564000000D-09 7.000000000000D+01
    3.600000000000D+05 4.000000000000D+00
15 13 10 24  6  0  0.0-1.435237936676D-04-1.932676241267D-12 0.000000000000D+00
    4.300000000000D+01 7.893750000000D+01 4.960920927984D-09-1.992382137685D+00
    3.824010491371D-06 5.709071643651D-03 8.409842848778D-06 5.153587282181D+03
    3.672000000000D+05 9.313225746155D-09-2.036933199724D+00-1.173466444016D-07
    9.390882830593D-01 2.079375000000D+02 1.690937561194D-01-8.202127365813D-09
    9.143237995420D-11 1.000000000000D+00 1.763000000000D+03 0.000000000000D+00
    2.000000000000D+00 0.000000000000D+00-9.778887000000D-09 4.300000000000D+01
    3.600300000000D+05 4.000000000000D+00
17 13 10 24  6  0  0.0-3.402866423130D-05-3.751665644813D-12 0.000000000000D+00
    8.900000000000D+01-2.087500000000D+01 4.334466262204D-09-1.267249105463D+00
   -1.108273863792D-06 8.620295440778D-03 9.121373295784D-06 5.153695791245D+03
    3.672000000000D+05 2.440065145493D-07 1.177800803765D+00 1.266598701477D-07
    9.664311450621D-01 2.084062500000D+02-2.187578643077D+00-7.867113411137D-09
    1.842933908452D-10 1.000000000000D+00 1.763000000000D+03 0.000000000000D+00
    2.000000000000D+00 0.000000000000D+00-1.024455000000D-08 8.900000000000D+01
    3.600000000000D+05 4.000000000000D+00
20 13 10 24  6  0  0.0 1.316191628575D-04 2.842170943040D-12 0.000000000000D+00
    6.800000000000D+01-1.218750000000D+00 5.353080120131D-09 7.377579918388D-01
   -1.974403858185D-07 5.692656501196D-03 7.979571819305D-06 5.153655004501D+03
    3.672000000000D+05-5.960464477539D-08-3.108766716109D+00-5.587935447693D-09
    9.279096666593D-01 2.075000000000D+02 1.287782977650D+00-8.497139654259D-09
   -3.028697585983D-10 1.000000000000D+00 1.763000000000D+03 0.000000000000D+00
    2.000000000000D+00 0.000000000000D+00-7.916242000000D-09 6.800000000000D+01
    3.600300000000D+05 4.000000000000D+00
25 13 10 24  6  0  0.0 1.603616401553D-04 3.524291969370D-12 0.000000000000D+00
    3.600000000000D+01-8.618750000000D+01 4.242319566781D-09 9.160116895522D-01
   -4.425644874573D-06 2.753133885562D-03 6.547197699547D-06 5.153710620880D+03
    3.672000000000D+05 1.490116119385D-08 8.485950511615D-02 7.078051567078D-08
    9.747058442051D-01 2.586562500000D+02 7.049651133809D-01-8.072121950566D-09
   -2.285809498855D-10 1.000000000000D+00 1.763000000000D+03 0.000000000000D+00
    2.000000000000D+00 0.000000000000D+00 5.587935000000D-09 3.600000000000D+01
    3.600300000000D+05 4.000000000000D+00
